{
  "type": "FeatureCollection",
  "features": [
    {
      "type": "Feature",
      "properties": {
        "norad_id": 30136,
        "name": "FENGYUN 1C DEB",
        "group": "fengyun-1c-debris",
        "lat": -29.638134691565842,
        "lon": -104.37376312763875,
        "alt_km": 877.0410969461436,
        "timestamp": "2025-12-24T16:52:41.806187+00:00",
        "meta_object_name": "FENGYUN 1C DEB",
        "meta_object_id": "1999-025SR",
        "meta_epoch": "2025-12-23T15:20:17.984256",
        "meta_mean_motion": 13.95337965,
        "meta_eccentricity": 0.012943,
        "meta_inclination": 98.5565,
        "meta_ra_of_asc_node": 249.7243,
        "meta_arg_of_pericenter": 39.4593,
        "meta_mean_anomaly": 349.4186,
        "meta_ephemeris_type": 0,
        "meta_classification_type": "U",
        "meta_norad_cat_id": 30136,
        "meta_element_set_no": 999,
        "meta_rev_at_epoch": 96243,
        "meta_bstar": 0.00054205794,
        "meta_mean_motion_dot": 7.48e-06,
        "meta_mean_motion_ddot": 0,
        "tle_line1": "1 30136U 99025SR  25357.63909704  .00000748  00000+0  54206-3 0  9996",
        "tle_line2": "2 30136  98.5565 249.7243 0129430  39.4593 349.4186 13.95337965962436"
      },
      "geometry": {
        "type": "Point",
        "coordinates": [
          -104.37376312763875,
          -29.638134691565842
        ]
      }
    },
    {
      "type": "Feature",
      "properties": {
        "norad_id": 30138,
        "name": "FENGYUN 1C DEB",
        "group": "fengyun-1c-debris",
        "lat": 43.02532488290743,
        "lon": 43.570302326260496,
        "alt_km": 814.5935788733723,
        "timestamp": "2025-12-24T16:52:41.806199+00:00",
        "meta_object_name": "FENGYUN 1C DEB",
        "meta_object_id": "1999-025ST",
        "meta_epoch": "2025-12-24T03:24:10.404576",
        "meta_mean_motion": 14.20063198,
        "meta_eccentricity": 0.00202868,
        "meta_inclination": 98.7582,
        "meta_ra_of_asc_node": 51.2873,
        "meta_arg_of_pericenter": 107.1627,
        "meta_mean_anomaly": 308.0093,
        "meta_ephemeris_type": 0,
        "meta_classification_type": "U",
        "meta_norad_cat_id": 30138,
        "meta_element_set_no": 999,
        "meta_rev_at_epoch": 97563,
        "meta_bstar": 0.00071037975,
        "meta_mean_motion_dot": 1.472e-05,
        "meta_mean_motion_ddot": 0,
        "tle_line1": "1 30138U 99025ST  25358.14178709  .00001472  00000+0  71038-3 0  9995",
        "tle_line2": "2 30138  98.7582  51.2873 0020286 107.1627 308.0093 14.20063198975631"
      },
      "geometry": {
        "type": "Point",
        "coordinates": [
          43.570302326260496,
          43.02532488290743
        ]
      }
    },
    {
      "type": "Feature",
      "properties": {
        "norad_id": 30139,
        "name": "FENGYUN 1C DEB",
        "group": "fengyun-1c-debris",
        "lat": -75.48318833747935,
        "lon": -13.277203413008033,
        "alt_km": 793.3340176767242,
        "timestamp": "2025-12-24T16:52:41.806210+00:00",
        "meta_object_name": "FENGYUN 1C DEB",
        "meta_object_id": "1999-025SU",
        "meta_epoch": "2025-12-23T01:05:41.861760",
        "meta_mean_motion": 14.03686762,
        "meta_eccentricity": 0.01309193,
        "meta_inclination": 98.3639,
        "meta_ra_of_asc_node": 199.8195,
        "meta_arg_of_pericenter": 261.1334,
        "meta_mean_anomaly": 265.0735,
        "meta_ephemeris_type": 0,
        "meta_classification_type": "U",
        "meta_norad_cat_id": 30139,
        "meta_element_set_no": 999,
        "meta_rev_at_epoch": 96394,
        "meta_bstar": 0.0010889689,
        "meta_mean_motion_dot": 1.807e-05,
        "meta_mean_motion_ddot": 0,
        "tle_line1": "1 30139U 99025SU  25357.04562340  .00001807  00000+0  10890-2 0  9992",
        "tle_line2": "2 30139  98.3639 199.8195 0130919 261.1334 265.0735 14.03686762963943"
      },
      "geometry": {
        "type": "Point",
        "coordinates": [
          -13.277203413008033,
          -75.48318833747935
        ]
      }
    },
    {
      "type": "Feature",
      "properties": {
        "norad_id": 30140,
        "name": "FENGYUN 1C DEB",
        "group": "fengyun-1c-debris",
        "lat": -68.36880450214889,
        "lon": -141.5092182435572,
        "alt_km": 803.0324827546929,
        "timestamp": "2025-12-24T16:52:41.806220+00:00",
        "meta_object_name": "FENGYUN 1C DEB",
        "meta_object_id": "1999-025SV",
        "meta_epoch": "2025-12-20T22:58:02.462016",
        "meta_mean_motion": 14.20787968,
        "meta_eccentricity": 0.0040948,
        "meta_inclination": 98.8258,
        "meta_ra_of_asc_node": 57.8166,
        "meta_arg_of_pericenter": 285.4592,
        "meta_mean_anomaly": 253.8839,
        "meta_ephemeris_type": 0,
        "meta_classification_type": "U",
        "meta_norad_cat_id": 30140,
        "meta_element_set_no": 999,
        "meta_rev_at_epoch": 97260,
        "meta_bstar": 0.00086556,
        "meta_mean_motion_dot": 1.84e-05,
        "meta_mean_motion_ddot": 0,
        "tle_line1": "1 30140U 99025SV  25354.95697294  .00001840  00000+0  86556-3 0  9998",
        "tle_line2": "2 30140  98.8258  57.8166 0040948 285.4592 253.8839 14.20787968972607"
      },
      "geometry": {
        "type": "Point",
        "coordinates": [
          -141.5092182435572,
          -68.36880450214889
        ]
      }
    },
    {
      "type": "Feature",
      "properties": {
        "norad_id": 30141,
        "name": "FENGYUN 1C DEB",
        "group": "fengyun-1c-debris",
        "lat": -15.590458505771617,
        "lon": 98.7977595828188,
        "alt_km": 737.9624694012664,
        "timestamp": "2025-12-24T16:52:41.806231+00:00",
        "meta_object_name": "FENGYUN 1C DEB",
        "meta_object_id": "1999-025SW",
        "meta_epoch": "2025-12-23T11:51:36.964512",
        "meta_mean_motion": 14.51775305,
        "meta_eccentricity": 0.00193714,
        "meta_inclination": 99.0153,
        "meta_ra_of_asc_node": 280.0403,
        "meta_arg_of_pericenter": 7.5353,
        "meta_mean_anomaly": 352.6127,
        "meta_ephemeris_type": 0,
        "meta_classification_type": "U",
        "meta_norad_cat_id": 30141,
        "meta_element_set_no": 999,
        "meta_rev_at_epoch": 98400,
        "meta_bstar": 0.0027888668,
        "meta_mean_motion_dot": 0.00011206,
        "meta_mean_motion_ddot": 0,
        "tle_line1": "1 30141U 99025SW  25357.49417783  .00011206  00000+0  27889-2 0  9994",
        "tle_line2": "2 30141  99.0153 280.0403 0019371   7.5353 352.6127 14.51775305984004"
      },
      "geometry": {
        "type": "Point",
        "coordinates": [
          98.7977595828188,
          -15.590458505771617
        ]
      }
    },
    {
      "type": "Feature",
      "properties": {
        "norad_id": 30142,
        "name": "FENGYUN 1C DEB",
        "group": "fengyun-1c-debris",
        "lat": 73.93671163709084,
        "lon": 40.72256736317553,
        "alt_km": 920.8060391202098,
        "timestamp": "2025-12-24T16:52:41.806241+00:00",
        "meta_object_name": "FENGYUN 1C DEB",
        "meta_object_id": "1999-025SX",
        "meta_epoch": "2025-12-24T04:35:42.724608",
        "meta_mean_motion": 14.10544373,
        "meta_eccentricity": 0.01021882,
        "meta_inclination": 99.1275,
        "meta_ra_of_asc_node": 74.1438,
        "meta_arg_of_pericenter": 275.7987,
        "meta_mean_anomaly": 83.1541,
        "meta_ephemeris_type": 0,
        "meta_classification_type": "U",
        "meta_norad_cat_id": 30142,
        "meta_element_set_no": 999,
        "meta_rev_at_epoch": 96460,
        "meta_bstar": 0.0016997223,
        "meta_mean_motion_dot": 3.134e-05,
        "meta_mean_motion_ddot": 0,
        "tle_line1": "1 30142U 99025SX  25358.19146672  .00003134  00000+0  16997-2 0  9998",
        "tle_line2": "2 30142  99.1275  74.1438 0102188 275.7987  83.1541 14.10544373964606"
      },
      "geometry": {
        "type": "Point",
        "coordinates": [
          40.72256736317553,
          73.93671163709084
        ]
      }
    },
    {
      "type": "Feature",
      "properties": {
        "norad_id": 30143,
        "name": "FENGYUN 1C DEB",
        "group": "fengyun-1c-debris",
        "lat": 26.960884570947396,
        "lon": 177.02271813454726,
        "alt_km": 931.3702956512325,
        "timestamp": "2025-12-24T16:52:41.806252+00:00",
        "meta_object_name": "FENGYUN 1C DEB",
        "meta_object_id": "1999-025SY",
        "meta_epoch": "2025-12-24T00:13:05.350080",
        "meta_mean_motion": 14.02620107,
        "meta_eccentricity": 0.01034193,
        "meta_inclination": 98.7347,
        "meta_ra_of_asc_node": 180.8421,
        "meta_arg_of_pericenter": 259.4066,
        "meta_mean_anomaly": 223.8474,
        "meta_ephemeris_type": 0,
        "meta_classification_type": "U",
        "meta_norad_cat_id": 30143,
        "meta_element_set_no": 999,
        "meta_rev_at_epoch": 96377,
        "meta_bstar": 0.00096919116,
        "meta_mean_motion_dot": 1.524e-05,
        "meta_mean_motion_ddot": 0,
        "tle_line1": "1 30143U 99025SY  25358.00908970  .00001524  00000+0  96919-3 0  9990",
        "tle_line2": "2 30143  98.7347 180.8421 0103419 259.4066 223.8474 14.02620107963770"
      },
      "geometry": {
        "type": "Point",
        "coordinates": [
          177.02271813454726,
          26.960884570947396
        ]
      }
    }
  ]
}